CUTE-1 (CO-55)          
1 27844U 03031E   26195.57423981  .00000140  00000+0  79585-4 0  9996
2 27844  98.6742 203.7891 0010828 104.2879 255.9503 14.24351311195574
CUBESAT XI-IV (CO-57)   
1 27848U 03031J   26195.57646245  .00000117  00000+0  70501-4 0  9993
2 27848  98.6774 203.4819 0010526 121.1058 239.1154 14.23634354195275
CUBESAT XI-V            
1 28895U 05043F   26195.37665838  .00000686  00000+0  11575-3 0  9994
2 28895  98.3013 351.5747 0015230 117.6296 242.6459 14.72701135105754
CUTE-1.7+APD II (CO-65) 
1 32785U 08021C   26195.55820328  .00002957  00000+0  18766-3 0  9995
2 32785  97.8290 177.5534 0007069 302.0160  58.0381 15.09697347989325
CANX-2                  
1 32790U 08021H   26195.60124060  .00001662  00000+0  11907-3 0  9999
2 32790  97.8657 175.9179 0008754 320.5204  39.5383 15.05804232988932
SEEDS II (CO-66)        
1 32791U 08021J   26195.54652954  .00010410  00000+0  32244-3 0  9999
2 32791  97.7520 194.7703 0002980 157.5049 202.6324 15.33652134991488
SWISSCUBE               
1 35932U 09051B   26195.46674337  .00000473  00000+0  10293-3 0  9991
2 35932  98.4009 103.8280 0007810 121.0198 239.1771 14.62529965893148
BEESAT-1                
1 35933U 09051C   26195.62734649  .00000390  00000+0  88002-4 0  9995
2 35933  98.3936 103.5691 0006091 131.2948 228.8778 14.61761338893194
ITUPSAT1                
1 35935U 09051E   26195.29974150  .00000370  00000+0  86376-4 0  9993
2 35935  98.4019 102.3994 0008028 145.6513 214.5207 14.60478047892695
TISAT 1                 
1 36799U 10035E   26195.41503334  .00012286  00000+0  39141-3 0  9998
2 36799  98.0712 144.4031 0004459 121.4672 238.7004 15.32712950871875
STRAND-1                
1 39090U 13009E   26195.48684837  .00000131  00000+0  58407-4 0  9997
2 39090  98.3933  15.0510 0009374 143.0599 217.1235 14.37178635700984
BRITE-AUSTRIA           
1 39091U 13009F   26195.44191914  .00000082  00000+0  42362-4 0  9991
2 39091  98.4007  14.2048 0010722 152.8336 207.3414 14.36552341700968
NEE-01 PEGASO           
1 39151U 13018B   26195.32863187  .00001104  00000+0  10978-3 0  9996
2 39151  98.1252 340.3824 0013633  76.9613 283.3127 14.93786198714756
POPACS 2                
1 39269U 13055E   26195.48021384  .00012593 -92452-6  20479-3 0  9990
2 39269  80.9920 112.9412 0415023 106.1788 258.5512 14.91996677667281
POPACS 3                
1 39270U 13055F   26195.32462916  .00008628  00000+0  20479-3 0  9999
2 39270  80.9986 199.7494 0548890 347.3255  11.4581 14.56646236642509
ZACUBE-1 (TSHEPISOSAT)  
1 39417U 13066B   26195.46814736  .00001286  00000+0  10282-3 0  9994
2 39417  97.8008 157.9398 0043993 157.5329 202.7834 15.01326998684828
WNISAT-1                
1 39423U 13066H   26195.38669252  .00000616  00000+0  11981-3 0  9996
2 39423  97.7233 342.6169 0163836 145.8483 215.3389 14.58118850670695
TRITON-1                
1 39427U 13066M   26195.64513508  .00001066  00000+0  13246-3 0  9997
2 39427  97.8229 104.8254 0090576 143.8815 216.8563 14.81793911678157
GOMX-1                  
1 39430U 13066Q   26195.49033501  .00000813  00000+0  12859-3 0  9992
2 39430  97.6469  34.2302 0128316 350.4797   9.3979 14.69542113673922
CUBEBUG-2 (LO-74)       
1 39440U 13066AA  26195.39146611  .00001973  00000+0  18552-3 0  9993
2 39440  97.8911 144.4904 0055785 298.0804  61.4782 14.93963525681059
NEE-02 KRYSAOR          
1 39441U 13066AB  26195.33301821  .00001214  00000+0  13773-3 0  9992
2 39441  97.8897 134.3568 0065489 342.1297  17.7616 14.86736951680238
FUNCUBE-1 (AO-73)       
1 39444U 13066AE  26195.49735473  .00003290  00000+0  20437-3 0  9997
2 39444  97.8287 167.5216 0038029 109.9036 250.6296 15.09812271683783
UWE-3                   
1 39446U 13066AG  26195.41799009  .00001896  00000+0  16564-3 0  9992
2 39446  97.8705 151.6809 0047490 227.1676 132.5551 14.97195599681656
BRITE-CA1 (TORONTO)     
1 40020U 14033L   26195.35124036  .00000526  00000+0  86646-4 0  9990
2 40020  97.9770 323.7836 0078374 188.9650 171.0163 14.72721565646213
DUCHIFAT-1              
1 40021U 14033M   26195.40583436  .00105194  00000+0  83752-3 0  9991
2 40021  98.0419 258.5256 0002583 244.7110 115.3883 15.70866495660013
NANOSATC-BR1            
1 40024U 14033Q   26195.37856549  .00010673  00000+0  34471-3 0  9999
2 40024  98.0711 230.1918 0005325  98.1574 262.0270 15.32311648658148
QB50P1                  
1 40025U 14033R   26195.56334166  .00004361  00000+0  21396-3 0  9996
2 40025  98.0961 208.6368 0010316 126.4314 233.7871 15.18660627657181
QB50P2                  
1 40032U 14033Y   26195.50393392  .00003533  00000+0  19037-3 0  9993
2 40032  98.0760 194.0927 0009342  85.5997 274.6301 15.15500776656809
PERSEUS-M2              
1 40037U 14033AD  26195.62850074  .00001300  00000+0  12252-3 0  9998
2 40037  97.9975 146.7309 0010765 200.7037 159.3748 14.95591268654888
PERSEUS-M1              
1 40039U 14033AF  26195.39856439  .00001279  00000+0  12028-3 0  9991
2 40039  97.9653 139.9798 0010858 198.9807 161.1010 14.95714052654707
